43249,IRIDIUM 144,2018,100.4,860.0,+,86.39,Active,1,LEO,USA,USA,Commercial/Government,Communications,Falcon,1 43249U 18030A   25099.54948234  .00000275  00000+0  90989-4 0  9990,2 43249  86.3916 111.7134 0002150  93.2827 266.8614 14.34217157367985,14.34217157,0.000215,LEO
43250,IRIDIUM 149,2018,100.4,860.0,+,86.39,Active,1,LEO,USA,USA,Commercial/Government,Communications,Falcon,1 43250U 18030B   25099.55582651  .00000045  00000+0  91702-5 0  9990,2 43250  86.3913 111.6828 0002218  95.1699 264.9750 14.34218006368004,14.34218006,0.0002218,LEO
43251,IRIDIUM 157,2018,100.4,860.0,+,86.39,Active,1,LEO,USA,USA,Commercial/Government,Communications,Falcon,1 43251U 18030C   25099.57485501 -.00000055  00000+0 -26858-4 0  9991,2 43251  86.3920 111.7182 0002468  89.4748 270.6731 14.34217442367987,14.34217442,0.0002468,LEO
43252,IRIDIUM 140,2018,100.4,860.0,+,86.39,Active,1,LEO,USA,USA,Commercial/Government,Communications,Falcon,1 43252U 18030D   25099.52411168 -.00000206  00000+0 -80784-4 0  9991,2 43252  86.3920 111.7535 0001971  91.1055 269.0367 14.34216250368039,14.3421625,0.0001971,LEO
43253,IRIDIUM 145,2018,100.4,860.0,+,86.39,Active,1,LEO,USA,USA,Commercial/Government,Communications,Falcon,1 43253U 18030E   25099.58119648 -.00000032  00000+0 -18660-4 0  9997,2 43253  86.3919 111.7024 0001970 100.8971 259.2446 14.34217257367974,14.34217257,0.000197,LEO
43254,IRIDIUM 146,2018,100.4,860.0,+,86.39,Active,1,LEO,USA,USA,Commercial/Government,Communications,Falcon,1 43254U 18030F   25099.56216816 -.00000056  00000+0 -27128-4 0  9996,2 43254  86.3920 111.7242 0001931 100.5449 259.5965 14.34216977367981,14.34216977,0.0001931,LEO
43255,IRIDIUM 148,2018,100.4,860.0,+,86.39,Active,1,LEO,USA,USA,Commercial/Government,Communications,Falcon,1 43255U 18030G   25099.53045402 -.00000084  00000+0 -37106-4 0  9993,2 43255  86.3921 111.7739 0002244  96.2215 263.9236 14.34216107368014,14.34216107,0.0002244,LEO
43256,IRIDIUM 142,2018,100.4,860.0,+,86.39,Active,1,LEO,USA,USA,Commercial/Government,Communications,Falcon,1 43256U 18030H   25099.56851125 -.00000052  00000+0 -25758-4 0  9999,2 43256  86.3917 111.6626 0002026 103.5206 256.6216 14.34216745367984,14.34216745,0.0002026,LEO
